1 44720U 19074H   23328.47126676  .00009343  00000-0  64509-3 0  9991
2 44720  53.0548 340.5432 0001586 100.6009 259.5159 15.06413035222719
1 44720U 19074H   23328.47126676  .00009343  00000-0  64509-3 0  9991
2 44720  53.0548 340.5432 0001586 100.6009 259.5159 15.06413035222887
1 44720U 19074H   23329.33378546  .00003243  00000-0  23657-3 0  9994
2 44720  53.0545 336.6718 0001330  94.5684 265.5457 15.06389958222844
1 44720U 19074H   23329.99725550  .00021569  00000-0  14619-2 0  9995
2 44720  53.0541 333.6924 0001302  82.8546 277.2591 15.06414069223114
1 44720U 19074H   23330.32898668  .00013909  00000-0  95043-3 0  9995
2 44720  53.0543 332.2027 0001324  91.9698 268.1442 15.06414578222992
1 44720U 19074H   23330.32898668  .00013909  00000-0  95043-3 0  9995
2 44720  53.0543 332.2027 0001324  91.9698 268.1442 15.06414578223162
1 44720U 19074H   23331.19150667 -.00006500  00000-0 -41813-3 0  9998
2 44720  53.0543 328.3303 0001443 112.3283 247.7859 15.06375316223290
1 44720U 19074H   23331.25785420 -.00004528  00000-0 -28548-3 0  9994
2 44720  53.0542 328.0323 0001503 114.7016 245.4130 15.06375658223134
1 44720U 19074H   23331.98768087  .00013059  00000-0  89423-3 0  9990
2 44720  53.0545 324.7563 0001461 115.3312 244.7829 15.06389414223418
1 44720U 19074H   23332.25306879  .00016195  00000-0  11037-2 0  9997
2 44720  53.0544 323.5647 0001522 114.8084 245.3063 15.06398394223284
1 44720U 19074H   23333.18192909  .00005873  00000-0  41283-3 0  9995
2 44720  53.0541 319.3950 0001411 101.2399 258.8749 15.06398104223590
1 44720U 19074H   23333.38096890  .00006411  00000-0  44888-3 0  9992
2 44720  53.0542 318.5011 0001418 102.4515 257.6633 15.06401640223454
1 44720U 19074H   23334.11077266  .00011369  00000-0  78039-3 0  9993
2 44720  53.0545 315.2250 0001449 109.1692 250.9454 15.06424930223735
1 44720U 19074H   23335.17232318 -.00004881  00000-0 -30907-3 0  9996
2 44720  53.0549 310.4600 0001378  84.4593 275.6553 15.06390557223721
1 44720U 19074H   23335.17232318 -.00004881  00000-0 -30907-3 0  9996
2 44720  53.0549 310.4600 0001378  84.4593 275.6553 15.06390557223899
1 44720U 19074H   23335.96848570  .00017498  00000-0  11903-2 0  9996
2 44720  53.0546 306.8849 0001394  86.3109 273.8039 15.06411148224016
1 44720U 19074H   23336.30021138  .00048232  00000-0  32299-2 0  9999
2 44720  53.0545 305.3972 0001384  86.9787 273.1360 15.06456931223897
1 44720U 19074H   23336.30021138  .00048232  00000-0  32299-2 0  9999
2 44720  53.0545 305.3972 0001384  86.9787 273.1360 15.06456931224067
1 44720U 19074H   23337.16273677  .00009547  00000-0  65937-3 0  9993
2 44720  53.0547 301.5238 0001319 110.9115 249.2016 15.06376350224195
1 44720U 19074H   23337.22908473  .00012333  00000-0  84591-3 0  9993
2 44720  53.0544 301.2276 0001309 115.6992 244.4132 15.06376476224033
1 44720U 19074H   23338.29064339  .00015214  00000-0  10380-2 0  9990
2 44720  53.0541 296.4621 0001418 104.5029 255.6118 15.06402298224195
1 44720U 19074H   23338.29064339  .00015214  00000-0  10380-2 0  9990
2 44720  53.0541 296.4621 0001418 104.5029 255.6118 15.06402298224364
1 44720U 19074H   23338.88776361  .00006355  00000-0  44506-3 0  9994
2 44720  53.0547 293.7805 0001670 108.8670 251.2500 15.06405953224282
1 44720U 19074H   23339.15314873  .00010426  00000-0  71749-3 0  9994
2 44720  53.0540 292.5897 0001481 103.1077 257.0077 15.06414328224494
1 44720U 19074H   23339.28584026  .00010648  00000-0  73230-3 0  9990
2 44720  53.0540 291.9938 0001491 103.7694 256.3461 15.06417705224340
1 44720U 19074H   23339.88294871  .00014141  00000-0  96538-3 0  9990
2 44720  53.0538 289.3132 0001498 105.6504 254.4651 15.06436948224432
1 44720U 19074H   23340.14832763  .00013092  00000-0  89510-3 0  9995
2 44720  53.0541 288.1215 0001516 104.1492 255.9665 15.06444756224477
1 44720U 19074H   23340.14832763  .00013092  00000-0  89510-3 0  9995
2 44720  53.0541 288.1215 0001516 104.1492 255.9665 15.06444756224646
1 44720U 19074H   23340.87814262 -.00001920  00000-0 -11001-3 0  9998
2 44720  53.0542 284.8459 0001703 102.4834 257.6346 15.06410342224581
1 44720U 19074H   23341.07718625 -.00009162  00000-0 -59716-3 0  9998
2 44720  53.0541 283.9521 0001345  88.5403 271.5740 15.06387043224616
1 44720U 19074H   23341.07718625 -.00009162  00000-0 -59716-3 0  9998
2 44720  53.0541 283.9521 0001345  88.5403 271.5740 15.06387043224784
1 44720U 19074H   23342.13874850  .00009855  00000-0  67970-3 0  9997
2 44720  53.0538 279.1869 0001262  86.5077 273.6056 15.06392569224776
1 44720U 19074H   23342.13874850  .00009855  00000-0  67970-3 0  9997
2 44720  53.0538 279.1869 0001262  86.5077 273.6056 15.06392569224945
1 44720U 19074H   23342.80221883  .00006646  00000-0  46466-3 0  9995
2 44720  53.0534 276.2091 0001269  87.6376 272.4758 15.06397846224878
1 44720U 19074H   23343.13395311  .00006287  00000-0  44056-3 0  9994
2 44720  53.0536 274.7195 0001272  88.5349 271.5785 15.06400769224927
1 44720U 19074H   23343.13395311  .00006287  00000-0  44056-3 0  9994
2 44720  53.0536 274.7195 0001272  88.5349 271.5785 15.06400769225096
1 44720U 19074H   23343.79741613  .00007852  00000-0  54526-3 0  9998
2 44720  53.0535 271.7403 0001250  92.1331 267.9801 15.06412814225027
1 44720U 19074H   23345.05800386  .00000736  00000-0  68305-4 0  9997
2 44720  53.0537 266.0782 0001138 107.7754 252.3359 15.06403323225215
1 44720U 19074H   23345.05800386  .00000736  00000-0  68305-4 0  9997
2 44720  53.0537 266.0782 0001138 107.7754 252.3359 15.06403323225383
1 44720U 19074H   23345.92051550  .00000634  00000-0  61457-4 0  9992
2 44720  53.0543 262.2094 0001276  87.2288 272.8847 15.06400549225343
1 44720U 19074H   23346.05320828  .00001783  00000-0  13856-3 0  9999
2 44720  53.0557 261.6166 0001582  93.5369 266.5801 15.06401980225363
1 44720U 19074H   23346.91572180  .00001336  00000-0  10861-3 0  9991
2 44720  53.0554 257.7430 0001632  99.6670 260.4503 15.06395237225491
1 44720U 19074H   23347.04841654  .00000678  00000-0  64435-4 0  9996
2 44720  53.0550 257.1466 0001553  95.7101 264.4065 15.06393327225516
1 44720U 19074H   23347.04841654  .00000678  00000-0  64435-4 0  9996
2 44720  53.0550 257.1466 0001553  95.7101 264.4065 15.06393327225684
1 44720U 19074H   23347.91091846  .00002064  00000-0  15742-3 0  9999
2 44720  53.0546 253.2751 0001544 102.1040 258.0122 15.06404682225644
1 44720U 19074H   23347.97726458  .00002285  00000-0  17220-3 0  9997
2 44720  53.0545 252.9770 0001538 100.8368 259.2794 15.06405775225654
1 44720U 19074H   23347.97726458  .00002285  00000-0  17220-3 0  9997
2 44720  53.0545 252.9770 0001538 100.8368 259.2794 15.06405775225823
1 44720U 19074H   23348.90612817  .00000792  00000-0  72091-4 0  9993
2 44720  53.0532 248.8077 0001428  78.1622 281.9527 15.06392637225795
1 44720U 19074H   23349.03882449  .00000272  00000-0  37152-4 0  9990
2 44720  53.0540 248.2120 0001315  84.6904 275.4235 15.06393602225817
1 44720U 19074H   23349.03882449  .00000272  00000-0  37152-4 0  9990
2 44720  53.0540 248.2120 0001315  84.6904 275.4235 15.06393602225985
1 44720U 19074H   23349.90132572 -.00000156  00000-0  83920-5 0  9998
2 44720  53.0541 244.3373 0001310  92.6838 267.4300 15.06406158225944
1 44720U 19074H   23350.03401993  .00003104  00000-0  22721-3 0  9995
2 44720  53.0544 243.7460 0001486  97.5352 262.5806 15.06396816225964
1 44720U 19074H   23350.03401993  .00003104  00000-0  22721-3 0  9995
2 44720  53.0544 243.7460 0001486  97.5352 262.5806 15.06396816226134
1 44720U 19074H   23350.89653968  .00005220  00000-0  36928-3 0  9995
2 44720  53.0548 239.8782 0001621  70.2443 289.8720 15.06375365226099
1 44720U 19074H   23350.96288408  .00001690  00000-0  13238-3 0  9992
2 44720  53.0544 239.5807 0001659  78.2478 281.8697 15.06390261226106
1 44720U 19074H   23350.96288408  .00001690  00000-0  13238-3 0  9992
2 44720  53.0544 239.5807 0001659  78.2478 281.8697 15.06390261226274
1 44720U 19074H   23351.82539232  .00017195  00000-0  11725-2 0  9997
2 44720  53.0547 235.7066 0001919  94.2793 265.8416 15.06334981226402
1 44720U 19074H   23351.89172685  .00000705  00000-0  66226-4 0  9996
2 44720  53.0557 235.4053 0001576  85.0057 275.1112 15.06412389226244
1 44720U 19074H   23351.95807401  .00002390  00000-0  17922-3 0  9994
2 44720  53.0540 235.1055 0001597  87.7216 272.3956 15.06412493226256
1 44720U 19074H   23351.95807401  .00002390  00000-0  17922-3 0  9994
2 44720  53.0540 235.1055 0001597  87.7216 272.3956 15.06412493226425
1 44720U 19074H   23352.82059237 -.00000523  00000-0 -16217-4 0  9992
2 44720  53.0545 231.2296 0001470  95.2443 264.8714 15.06394102226558
1 44720U 19074H   23352.88693951 -.00000791  00000-0 -34236-4 0  9993
2 44720  53.0538 230.9299 0001453 101.7410 258.3742 15.06392994226395
1 44720U 19074H   23353.94849035 -.00001137  00000-0 -57474-4 0  9991
2 44720  53.0529 226.1663 0001424 105.5292 254.5854 15.06396794226557
1 44720U 19074H   23353.94849035 -.00001137  00000-0 -57474-4 0  9991
2 44720  53.0529 226.1663 0001424 105.5292 254.5854 15.06396794226726
1 44720U 19074H   23354.81100738  .00001716  00000-0  13409-3 0  9998
2 44720  53.0529 222.2963 0001394  97.6522 262.4625 15.06390793226850
1 44720U 19074H   23354.87735448  .00001744  00000-0  13595-3 0  9993
2 44720  53.0530 221.9990 0001378  97.1172 262.9974 15.06391212226697
1 44720U 19074H   23354.94370184  .00001690  00000-0  13236-3 0  9995
2 44720  53.0529 221.7017 0001342  91.5178 268.5964 15.06391330226702
1 44720U 19074H   23355.93890157  .00002418  00000-0  18115-3 0  9992
2 44720  53.0530 217.2339 0001359  86.1010 274.0134 15.06401882226855
1 44720U 19074H   23355.93890157  .00002418  00000-0  18115-3 0  9992
2 44720  53.0530 217.2339 0001359  86.1010 274.0134 15.06401882227025
1 44720U 19074H   23356.80141473  .00001115  00000-0  93765-4 0  9997
2 44720  53.0526 213.3637 0001310  88.0339 272.0800 15.06397026227156
1 44720U 19074H   23356.86776136  .00000985  00000-0  85010-4 0  9991
2 44720  53.0526 213.0651 0001326  86.6832 273.4309 15.06396990226997
